STARLINK-3134           
1 49434U 21104AC  24241.20878093  .00000272  00000+0  35169-4 0  9990
2 49434  53.2163 216.3928 0001528  97.3788 262.7377 15.08839560155409
STARLINK-3117           
1 49435U 21104AD  24242.16098877  .00002089  00000+0  14924-3 0  9994
2 49435  53.2164 191.9663 0001202  86.8762 273.2368 15.08850272155836
STARLINK-3049           
1 49436U 21104AE  24241.56387980  .00000554  00000+0  52891-4 0  9995
2 49436  53.2160 194.6450 0001528  94.4341 265.6826 15.08843397154659
STARLINK-3130           
1 49437U 21104AF  24241.15908006  .00000998  00000+0  80782-4 0  9991
2 49437  53.2166 196.4599 0001465  99.9590 260.1568 15.08840978154594
STARLINK-3044           
1 49438U 21104AG  24241.61266620  .00001984  00000+0  14269-3 0  9994
2 49438  53.2143 194.3579 0001219 108.1675 251.9450 15.08851562154666
STARLINK-3105           
1 49440U 21104AJ  24242.14531868  .00000672  00000+0  60250-4 0  9990
2 49440  53.2140 192.0377 0000592 119.1702 240.9349 15.08850166155815
STARLINK-3128           
1 49441U 21104AK  24242.12691785  .00000525  00000+0  51076-4 0  9997
2 49441  53.2136 192.1175 0001263  93.4089 266.7048 15.08853318155821
STARLINK-3098           
1 49442U 21104AL  24242.14163971  .00000237  00000+0  32996-4 0  9991
2 49442  53.2164 192.0520 0001455  93.2921 266.8238 15.08840295155824
STARLINK-3136           
1 49443U 21104AM  24242.12323675  .00001692  00000+0  12435-3 0  9990
2 49443  53.2144 192.1325 0001218  85.2760 274.8371 15.08846652155815
STARLINK-3126           
1 49444U 21104AN  24241.60899180  .00000979  00000+0  79573-4 0  9996
2 49444  53.2163 194.4508 0001416  89.2890 270.8264 15.08852480154668
STARLINK-3122           
1 49445U 21104AP  24242.18956719  .00000932  00000+0  76631-4 0  9994
2 49445  53.2164 202.2353 0001613  90.6375 269.4802 15.08841630155690
STARLINK-3099           
1 49446U 21104AQ  24242.13427459  .00001509  00000+0  11286-3 0  9999
2 49446  53.2182 192.0795 0001665 100.2298 259.8882 15.08845835155812
STARLINK-3115           
1 49447U 21104AR  24242.21064609  .00001154  00000+0  90581-4 0  9995
2 49447  53.2165 201.7401 0001441  76.3498 283.7654 15.08835308155685
STARLINK-3137           
1 49449U 21104AT  24241.61080427  .00001157  00000+0  90781-4 0  9991
2 49449  53.2152 204.4455 0001511  95.8235 264.2930 15.08841801154523
STARLINK-3127           
1 49450U 21104AU  24241.62184203  .00004440  00000+0  29680-3 0  9998
2 49450  53.2161 204.4211 0001209  91.2054 268.9077 15.08850233154788
STARLINK-3125           
1 49451U 21104AV  24242.20327486  .00001316  00000+0  10076-3 0  9994
2 49451  53.2160 201.7775 0001499  99.7361 260.3801 15.08848851155693
STARLINK-3150           
1 49452U 21104AW  24241.59704139  .00000957  00000+0  78204-4 0  9998
2 49452  53.2166 204.5329 0001638  95.8168 264.3011 15.08845961155600
STARLINK-3129           
1 49453U 21104AX  24241.60808998  .00000426  00000+0  44887-4 0  9990
2 49453  53.2169 204.5348 0001550  93.7585 266.3584 15.08839957154523
STARLINK-3160           
1 49454U 21104AY  24241.60343847 -.00001423  00000+0 -71314-4 0  9993
2 49454  53.2151 204.4686 0001347  93.2136 266.9010 15.08849686155600
STARLINK-3145           
1 49455U 21104AZ  24241.19127981  .00000321  00000+0  38230-4 0  9991
2 49455  53.2158 206.3193 0001502  91.0683 269.0481 15.08840408154460
STARLINK-3124           
1 49456U 21104BA  24242.19687863  .00001320  00000+0  10098-3 0  9994
2 49456  53.2165 201.8530 0001521  98.7723 261.3441 15.08848594155684
STARLINK-3132           
1 49457U 21104BB  24241.18855729  .00000223  00000+0  32109-4 0  9990
2 49457  53.2162 206.3395 0001444  94.5644 265.5513 15.08840702154465
STARLINK-3156           
1 49458U 21104BC  24241.59239664  .00000991  00000+0  80353-4 0  9996
2 49458  53.2157 204.5178 0001491  92.2798 267.8364 15.08844043154524
STARLINK-3141           
1 49459U 21104BD  24242.17751124  .00000552  00000+0  52733-4 0  9996
2 49459  53.2157 201.8901 0001486  88.7105 271.4057 15.08852570155687
STARLINK-3140           
1 49460U 21104BE  24242.17383612  .00001344  00000+0  10249-3 0  9996
2 49460  53.2158 201.9053 0001517  99.0728 261.0436 15.08846453155690
STARLINK-3219           
1 49724U 21115A   24241.44798547  .00001500  00000+0  11228-3 0  9999
2 49724  53.2178 135.3839 0001855 102.5223 257.5977 15.08846781151254
STARLINK-3218           
1 49725U 21115B   24241.40380929  .00001770  00000+0  12924-3 0  9990
2 49725  53.2182 135.4681 0001385  86.2051 273.9100 15.08843977151255
STARLINK-3237           
1 49726U 21115C   24240.93136937  .01201502  00000+0  69583-2 0  9994
2 49726  53.1807 110.9767 0012267 234.7054 125.2820 15.75154343152666
STARLINK-3242           
1 49727U 21115D   24241.42495535  .00001455  00000+0  10947-3 0  9997
2 49727  53.2177 145.2660 0001360 100.9143 259.2003 15.08847888151115
STARLINK-3240           
1 49728U 21115E   24242.15727302  .00029321  00000+0  18508-2 0  9991
2 49728  53.2157 141.9827 0001316  93.3214 266.7928 15.08877559152339
STARLINK-3251           
1 49729U 21115F   24242.01742033  .00001600  00000+0  11860-3 0  9990
2 49729  53.2163 142.4880 0001510  89.2348 270.8817 15.08849057152313
STARLINK-3249           
1 49730U 21115G   24242.05425523  .00003881  00000+0  26165-3 0  9995
2 49730  53.2155 142.6376 0001328  82.9372 277.1771 15.08859413152318
STARLINK-3246           
1 49732U 21115J   24241.99537086  .00002208  00000+0  15674-3 0  9992
2 49732  53.2177 142.8610 0001165 121.7910 238.3195 15.08850933152302
STARLINK-3252           
1 49733U 21115K   24241.44335406  .00001796  00000+0  13086-3 0  9991
2 49733  53.2170 145.1847 0001267  67.9596 292.1531 15.08851698151117
STARLINK-3238           
1 49734U 21115L   24240.99900769  .00001801  00000+0  13122-3 0  9999
2 49734  53.2152 137.2087 0001280  83.2456 276.8682 15.08833096152307
STARLINK-3113           
1 49735U 21115M   24242.03214320  .00003847  00000+0  25959-3 0  9991
2 49735  53.2168 142.4269 0001997  91.5535 268.5686 15.08851690152313
STARLINK-3148           
1 49736U 21115N   24241.98890308  .00006531  00000+0  42786-3 0  9991
2 49736  53.2154 132.6229 0001300  77.9468 282.1669 15.08856657152453
STARLINK-3225           
1 49737U 21115P   24241.40012036  .00001114  00000+0  88038-4 0  9996
2 49737  53.2159 135.3819 0001408  90.3868 269.7285 15.08843895151258
STARLINK-3143           
1 49738U 21115Q   24241.95677907  .00005979  00000+0  39326-3 0  9999
2 49738  53.2163 133.0891 0001246  83.8974 276.2160 15.08855997151334
STARLINK-3155           
1 49739U 21115R   24241.45439922  .00001754  00000+0  12825-3 0  9990
2 49739  53.2183 145.1389 0001546  81.9760 278.1408 15.08848592151113
STARLINK-3226           
1 49740U 21115S   24241.41579658  .00003803  00000+0  25686-3 0  9995
2 49740  53.2176 135.2860 0001343 100.7566 259.3577 15.08846801151254
STARLINK-3244           
1 49741U 21115T   24241.41212097  .00003448  00000+0  23459-3 0  9998
2 49741  53.2156 135.3394 0001318  99.6243 260.4898 15.08847909151255
STARLINK-3202           
1 49742U 21115U   24241.95579600  .00005645  00000+0  37233-3 0  9990
2 49742  53.2159 132.8881 0001318  86.5031 273.6112 15.08857292151332
STARLINK-3239           
1 49743U 21115V   24241.40842711  .00005082  00000+0  33703-3 0  9990
2 49743  53.2155 135.2751 0001088  75.6001 284.5112 15.08853872151254
STARLINK-3231           
1 49744U 21115W   24241.42314159  .00002697  00000+0  18743-3 0  9999
2 49744  53.2157 135.1700 0001227  79.6338 280.4792 15.08847842151251
STARLINK-3241           
1 49745U 21115X   24242.01563035  .00011130  00000+0  71598-3 0  9994
2 49745  53.2146 132.5899 0001350  83.7067 276.4079 15.08856202152458
STARLINK-3233           
1 49746U 21115Y   24241.97052250  .00000799  00000+0  68271-4 0  9995
2 49746  53.2189 132.8189 0001566  92.3622 267.7550 15.08843560152442
STARLINK-3247           
1 49747U 21115Z   24242.02571729  .00006175  00000+0  40549-3 0  9991
2 49747  53.2162 132.5745 0001507  77.9851 282.1310 15.08860425152452
STARLINK-3248           
1 49748U 21115AA  24241.40743040  .00005461  00000+0  36082-3 0  9994
2 49748  53.2151 134.9225 0000998  79.8079 280.3026 15.08851080151265
STARLINK-3250           
1 49749U 21115AB  24241.98990108  .00001059  00000+0  84584-4 0  9997
2 49749  53.2160 132.9760 0001334  86.7015 273.4130 15.08847632152448
STARLINK-3236           
1 49750U 21115AC  24240.99260215  .00006769  00000+0  44296-3 0  9996
2 49750  53.2165 137.2195 0002005  94.7282 265.3939 15.08842095151192
STARLINK-3229           
1 49751U 21115AD  24241.96682556  .00001593  00000+0  11811-3 0  9998
2 49751  53.2152 132.7617 0001281  82.6661 277.4476 15.08850841151345
STARLINK-3209           
1 49752U 21115AE  24241.93559954  .00003334  00000+0  22741-3 0  9990
2 49752  53.2158 122.9864 0001428  90.5731 269.5424 15.08846833152584
STARLINK-3200           
1 49753U 21115AF  24240.98796333  .00001898  00000+0  13729-3 0  9998
2 49753  53.2167 137.2315 0001394  88.1543 271.9609 15.08846497151195
STARLINK-3193           
1 49754U 21115AG  24241.93833026  .00004403  00000+0  29445-3 0  9993
2 49754  53.2164 123.0714 0001338  77.2651 282.8491 15.08856148151471
STARLINK-3210           
1 49755U 21115AH  24241.99355849  .00003161  00000+0  21654-3 0  9996
2 49755  53.2161 132.7667 0001561  86.9487 273.1683 15.08852611152451
STARLINK-3207           
1 49756U 21115AJ  24241.94567166  .00002275  00000+0  16093-3 0  9995
2 49756  53.2166 122.9325 0001324  87.4143 272.7000 15.08853426152588
STARLINK-3197           
1 49757U 21115AK  24241.93927301  .00004259  00000+0  28540-3 0  9990
2 49757  53.2164 122.9721 0001401  77.0863 283.0285 15.08858730151477
STARLINK-3194           
1 49758U 21115AL  24241.95303533  .00007524  00000+0  49009-3 0  9999
2 49758  53.2163 122.8984 0001578  92.0821 268.0352 15.08859121152589
